{
    "links": {
        "self": "http://www.neowsapp.com/rest/v1/neo/3550140?api_key=iIulBulltgU6a56xZRHN4H3l9WmuAYTsLGpBGhQ2"
    },
    "id": "3550140",
    "neo_reference_id": "3550140",
    "name": "(2010 VR)",
    "designation": "2010 VR",
    "nasa_jpl_url": "http://ssd.jpl.nasa.gov/sbdb.cgi?sstr=3550140",
    "absolute_magnitude_h": 24.5,
    "estimated_diameter": {
        "kilometers": {
            "estimated_diameter_min": 0.0334622374,
            "estimated_diameter_max": 0.0748238376
        },
        "meters": {
            "estimated_diameter_min": 33.4622374455,
            "estimated_diameter_max": 74.8238376074
        },
        "miles": {
            "estimated_diameter_min": 0.0207924639,
            "estimated_diameter_max": 0.0464933628
        },
        "feet": {
            "estimated_diameter_min": 109.7842471007,
            "estimated_diameter_max": 245.4850393757
        }
    },
    "is_potentially_hazardous_asteroid": false,
    "close_approach_data": [
        {
            "close_approach_date": "2010-11-08",
            "close_approach_date_full": "2010-Nov-08 02:54",
            "epoch_date_close_approach": 1289184840000,
            "relative_velocity": {
                "kilometers_per_second": "11.3528317584",
                "kilometers_per_hour": "40870.1943301453",
                "miles_per_hour": "25395.1493603061"
            },
            "miss_distance": {
                "astronomical": "0.0595423341",
                "lunar": "23.1619679649",
                "kilometers": "8907406.356188367",
                "miles": "5534805.6573867846"
            },
            "orbiting_body": "Earth"
        }
    ],
    "orbital_data": {
        "orbit_id": "12",
        "orbit_determination_date": "2017-04-06 08:55:59",
        "first_observation_date": "2010-11-02",
        "last_observation_date": "2010-11-10",
        "data_arc_in_days": 8,
        "observations_used": 38,
        "orbit_uncertainty": "8",
        "minimum_orbit_intersection": ".0548246",
        "jupiter_tisserand_invariant": "4.700",
        "epoch_osculation": "2455505.5",
        "eccentricity": ".2690681366924573",
        "semi_major_axis": "1.383199268789707",
        "inclination": "19.22369694751681",
        "ascending_node_longitude": "223.8049299381038",
        "orbital_period": "594.1902933096467",
        "perihelion_distance": "1.011024418862091",
        "perihelion_argument": "213.9967842909327",
        "aphelion_distance": "1.755374118717322",
        "perihelion_time": "2455537.444046079213",
        "mean_anomaly": "340.6461722481827",
        "mean_motion": ".6058665112060245",
        "equinox": "J2000",
        "orbit_class": {
            "orbit_class_type": "APO",
            "orbit_class_description": "Near-Earth asteroid orbits which cross the Earth’s orbit similar to that of 1862 Apollo",
            "orbit_class_range": "a (semi-major axis) > 1.0 AU; q (perihelion) < 1.017 AU"
        }
    },
    "is_sentry_object": false
}